[{"OBJECT_NAME":"STARLINK-1337","OBJECT_ID":"2020-025BD","EPOCH":"2026-03-09T22:35:33.556704","MEAN_MOTION":15.5811643,"ECCENTRICITY":0.00049353,"INCLINATION":53.0535,"RA_OF_ASC_NODE":60.5346,"ARG_OF_PERICENTER":78.7779,"MEAN_ANOMALY":281.3787,"EPHEMERIS_TYPE":0,"CLASSIFICATION_TYPE":"U","NORAD_CAT_ID":45582,"ELEMENT_SET_NO":999,"REV_AT_EPOCH":32575,"BSTAR":0.00094647262,"MEAN_MOTION_DOT":0.00072727,"MEAN_MOTION_DDOT":0},{"OBJECT_NAME":"STARLINK-36615","OBJECT_ID":"2026-020E","EPOCH":"2026-03-09T22:00:01.999584","MEAN_MOTION":15.65039115,"ECCENTRICITY":0.00012613,"INCLINATION":42.9993,"RA_OF_ASC_NODE":140.2982,"ARG_OF_PERICENTER":280.8811,"MEAN_ANOMALY":217.6824,"EPHEMERIS_TYPE":0,"CLASSIFICATION_TYPE":"U","NORAD_CAT_ID":67621,"ELEMENT_SET_NO":999,"REV_AT_EPOCH":604,"BSTAR":-0.022076002,"MEAN_MOTION_DOT":-0.01968838,"MEAN_MOTION_DDOT":0}]
